[{"OBJECT_NAME":"STARLINK-5019","OBJECT_ID":"2023-014S","EPOCH":"2026-03-09T10:12:41.700960","MEAN_MOTION":14.98345014,"ECCENTRICITY":0.00039359,"INCLINATION":69.9993,"RA_OF_ASC_NODE":65.2133,"ARG_OF_PERICENTER":271.9946,"MEAN_ANOMALY":88.0763,"EPHEMERIS_TYPE":0,"CLASSIFICATION_TYPE":"U","NORAD_CAT_ID":55407,"ELEMENT_SET_NO":999,"REV_AT_EPOCH":17201,"BSTAR":0.00010961402,"MEAN_MOTION_DOT":1.216e-5,"MEAN_MOTION_DDOT":0},{"OBJECT_NAME":"NOAA 16 DEB","OBJECT_ID":"2000-055PP","EPOCH":"2026-03-07T09:37:02.399808","MEAN_MOTION":14.94870962,"ECCENTRICITY":0.00127779,"INCLINATION":98.9453,"RA_OF_ASC_NODE":285.7448,"ARG_OF_PERICENTER":347.412,"MEAN_ANOMALY":12.6776,"EPHEMERIS_TYPE":0,"CLASSIFICATION_TYPE":"U","NORAD_CAT_ID":41709,"ELEMENT_SET_NO":999,"REV_AT_EPOCH":51965,"BSTAR":0.009194972,"MEAN_MOTION_DOT":0.00101727,"MEAN_MOTION_DDOT":0}]
